{"type": "FeatureCollection", "bbox": [-122.71, 45.51745, -122.70645, 45.52], "features": [{"type": "Feature", "properties": {"osm_id": "node/1396611856", "osm_url": "https://www.openstreetmap.org/node/1396611856", "amenity": "drinking_water", "check_date": "2024-08-14", "fountain": "bubbler", "source": "local_knowledge"}, "geometry": {"type": "Point", "coordinates": [-122.7065877, 45.5191046]}}, {"type": "Feature", "properties": {"osm_id": "node/1525938033", "osm_url": "https://www.openstreetmap.org/node/1525938033", "bus": "yes", "disused:highway": "bus_stop", "disused:public_transport": "platform", "name": "Southwest Kingston & Japanese Garden", "network": "TriMet", "network:wikidata": "Q1766623", "operator": "TriMet", "operator:wikidata": "Q1766623", "ref:TriMet": "3276"}, "geometry": {"type": "Point", "coordinates": [-122.7067078, 45.5190688]}}, {"type": "Feature", "properties": {"osm_id": "node/2418502420", "osm_url": "https://www.openstreetmap.org/node/2418502420", "amenity": "parking"}, "geometry": {"type": "Point", "coordinates": [-122.7066877, 45.5185942]}}, {"type": "Feature", "properties": {"osm_id": "node/2418502422", "osm_url": "https://www.openstreetmap.org/node/2418502422", "access": "yes", "amenity": "parking", "fee": "yes"}, "geometry": {"type": "Point", "coordinates": [-122.706669, 45.5196109]}}, {"type": "Feature", "properties": {"osm_id": "node/2418502424", "osm_url": "https://www.openstreetmap.org/node/2418502424", "amenity": "parking", "parking": "street_side"}, "geometry": {"type": "Point", "coordinates": [-122.706677, 45.5188648]}}, {"type": "Feature", "properties": {"osm_id": "node/2418502425", "osm_url": "https://www.openstreetmap.org/node/2418502425", "amenity": "parking"}, "geometry": {"type": "Point", "coordinates": [-122.7066743, 45.5199078]}}, {"type": "Feature", "properties": {"osm_id": "node/2418502426", "osm_url": "https://www.openstreetmap.org/node/2418502426", "amenity": "parking", "parking": "street_side"}, "geometry": {"type": "Point", "coordinates": [-122.706677, 45.5193083]}}, {"type": "Feature", "properties": {"osm_id": "node/5808321270", "osm_url": "https://www.openstreetmap.org/node/5808321270", "amenity": "drinking_water", "drinking_water": "fountain"}, "geometry": {"type": "Point", "coordinates": [-122.7083277, 45.5185342]}}, {"type": "Feature", "properties": {"osm_id": "node/5808321271", "osm_url": "https://www.openstreetmap.org/node/5808321271", "amenity": "bench", "backrest": "yes"}, "geometry": {"type": "Point", "coordinates": [-122.7082617, 45.5184662]}}, {"type": "Feature", "properties": {"osm_id": "node/5808321272", "osm_url": "https://www.openstreetmap.org/node/5808321272", "amenity": "bench"}, "geometry": {"type": "Point", "coordinates": [-122.7078529, 45.5184578]}}, {"type": "Feature", "properties": {"osm_id": "node/5811493940", "osm_url": "https://www.openstreetmap.org/node/5811493940", "entrance": "yes"}, "geometry": {"type": "Point", "coordinates": [-122.708577, 45.5191882]}}, {"type": "Feature", "properties": {"osm_id": "node/5811493946", "osm_url": "https://www.openstreetmap.org/node/5811493946", "check_date": "2026-05-15", "check_date:opening_hours": "2026-05-15", "name": "Portland Japanese Garden Gift Shop", "opening_hours": "Mo-Su 09:00-18:30", "shop": "gift"}, "geometry": {"type": "Point", "coordinates": [-122.7085461, 45.5191946]}}, {"type": "Feature", "properties": {"osm_id": "node/5811493947", "osm_url": "https://www.openstreetmap.org/node/5811493947", "amenity": "toilets"}, "geometry": {"type": "Point", "coordinates": [-122.7088274, 45.5192268]}}, {"type": "Feature", "properties": {"osm_id": "node/5811493948", "osm_url": "https://www.openstreetmap.org/node/5811493948", "tourism": "viewpoint"}, "geometry": {"type": "Point", "coordinates": [-122.7074134, 45.5187056]}}, {"type": "Feature", "properties": {"osm_id": "node/9690514672", "osm_url": "https://www.openstreetmap.org/node/9690514672", "amenity": "bicycle_parking", "bicycle_parking": "stands", "capacity": "10", "covered": "no", "type": "stands"}, "geometry": {"type": "Point", "coordinates": [-122.7072421, 45.5194257]}}, {"type": "Feature", "properties": {"osm_id": "node/9696789127", "osm_url": "https://www.openstreetmap.org/node/9696789127", "leisure": "garden", "name": "Bonsai Terrace"}, "geometry": {"type": "Point", "coordinates": [-122.7088188, 45.5189]}}, {"type": "Feature", "properties": {"osm_id": "node/9696789132", "osm_url": "https://www.openstreetmap.org/node/9696789132", "name": "Sapporo Pagoda", "tourism": "artwork"}, "geometry": {"type": "Point", "coordinates": [-122.7085868, 45.5182907]}}, {"type": "Feature", "properties": {"osm_id": "node/9696789133", "osm_url": "https://www.openstreetmap.org/node/9696789133", "amenity": "bench", "backrest": "no", "material": "wood"}, "geometry": {"type": "Point", "coordinates": [-122.7083749, 45.5187365]}}, {"type": "Feature", "properties": {"osm_id": "node/9696789134", "osm_url": "https://www.openstreetmap.org/node/9696789134", "amenity": "bench", "backrest": "no", "material": "wood"}, "geometry": {"type": "Point", "coordinates": [-122.7083755, 45.5187473]}}, {"type": "Feature", "properties": {"osm_id": "node/9696789135", "osm_url": "https://www.openstreetmap.org/node/9696789135", "amenity": "bench", "backrest": "no"}, "geometry": {"type": "Point", "coordinates": [-122.7086857, 45.5189221]}}, {"type": "Feature", "properties": {"osm_id": "node/9696789136", "osm_url": "https://www.openstreetmap.org/node/9696789136", "amenity": "bench", "backrest": "no"}, "geometry": {"type": "Point", "coordinates": [-122.7087316, 45.5189367]}}, {"type": "Feature", "properties": {"osm_id": "node/9696789137", "osm_url": "https://www.openstreetmap.org/node/9696789137", "amenity": "bench", "backrest": "no"}, "geometry": {"type": "Point", "coordinates": [-122.7085515, 45.5190922]}}, {"type": "Feature", "properties": {"osm_id": "node/9696789138", "osm_url": "https://www.openstreetmap.org/node/9696789138", "amenity": "bench", "backrest": "no"}, "geometry": {"type": "Point", "coordinates": [-122.7085361, 45.5191159]}}, {"type": "Feature", "properties": {"osm_id": "node/9696789164", "osm_url": "https://www.openstreetmap.org/node/9696789164", "fee": "yes", "name": "Japanese Arts Learning Center", "tourism": "museum", "website": "https://japanesegarden.org/cultural-village/learning-center/"}, "geometry": {"type": "Point", "coordinates": [-122.708754, 45.5192021]}}, {"type": "Feature", "properties": {"osm_id": "node/9696789165", "osm_url": "https://www.openstreetmap.org/node/9696789165", "amenity": "bench", "backrest": "yes", "material": "wood"}, "geometry": {"type": "Point", "coordinates": [-122.7083614, 45.5187939]}}, {"type": "Feature", "properties": {"osm_id": "node/14075649343", "osm_url": "https://www.openstreetmap.org/node/14075649343", "information": "map", "tourism": "information"}, "geometry": {"type": "Point", "coordinates": [-122.7065955, 45.5191237]}}, {"type": "Feature", "properties": {"osm_id": "way/5518011", "osm_url": "https://www.openstreetmap.org/way/5518011", "bicycle": "designated", "highway": "residential", "maxspeed": "20 mph", "name": "Southwest Kingston Drive", "sidewalk": "no", "surface": "asphalt"}, "geometry": {"type": "LineString", "coordinates": [[-122.706656, 45.518133], [-122.7070448, 45.5179966], [-122.7072799, 45.5179249], [-122.7074035, 45.5178948], [-122.7075342, 45.5178799], [-122.7076858, 45.5178879], [-122.7078521, 45.517917], [-122.7080118, 45.5179631], [-122.7080882, 45.5179946], [-122.708175, 45.5180069], [-122.7082414, 45.5180015], [-122.7083015, 45.5179794], [-122.7083416, 45.5179494], [-122.7083634, 45.5179084], [-122.7083524, 45.5178506], [-122.7083086, 45.5178046], [-122.7082258, 45.5177679], [-122.7081324, 45.5177337], [-122.7079628, 45.5176834], [-122.707819, 45.5176352], [-122.7076903, 45.517583], [-122.7076224, 45.5175543], [-122.707558, 45.517522], [-122.7074603, 45.5174533], [-122.7073828, 45.5173746], [-122.707362, 45.51733], [-122.7073492, 45.5172853], [-122.7073499, 45.5172493], [-122.707364, 45.517196], [-122.7074061, 45.5170927], [-122.707443, 45.5170136], [-122.7074888, 45.5169377], [-122.7075545, 45.5168394], [-122.7076326, 45.5167491], [-122.7077359, 45.5166645], [-122.7078482, 45.5165861], [-122.708241, 45.516371], [-122.7082771, 45.5163473], [-122.708299, 45.516318], [-122.7083086, 45.516273], [-122.7083, 45.516228], [-122.7082781, 45.5161966], [-122.708244, 45.516168], [-122.708079, 45.516082], [-122.706889, 45.515607], [-122.706648, 45.515482], [-122.706225, 45.515314], [-122.7061466, 45.5152651], [-122.706082, 45.515213], [-122.7060481, 45.5151725], [-122.706028, 45.515132], [-122.706007, 45.515026], [-122.706022, 45.514659], [-122.7060145, 45.5145845], [-122.705987, 45.51451], [-122.705911, 45.514398], [-122.705647, 45.514103], [-122.705521, 45.5139745], [-122.705338, 45.513788], [-122.7052899, 45.5137268], [-122.7052507, 45.5136705], [-122.7052288, 45.513625], [-122.7052159, 45.513579], [-122.7052156, 45.513536], [-122.7052223, 45.513493], [-122.7052375, 45.5134461], [-122.7052614, 45.5133992], [-122.7053385, 45.513309], [-122.705428, 45.51322], [-122.70556, 45.513136], [-122.7056178, 45.5131054], [-122.7056766, 45.513081], [-122.7057549, 45.5130618], [-122.7058394, 45.5130506], [-122.7058901, 45.5130472], [-122.7059338, 45.5130488], [-122.7059853, 45.5130574], [-122.70605, 45.5130822], [-122.7061103, 45.5131178], [-122.706168, 45.513167], [-122.7062196, 45.5132255], [-122.706263, 45.513284], [-122.70665, 45.513938], [-122.706769, 45.514106], [-122.7068108, 45.5141573], [-122.706862, 45.514202], [-122.7069303, 45.5142486], [-122.707008, 45.514287], [-122.7071578, 45.5143541], [-122.707317, 45.514413], [-122.708064, 45.514669], [-122.70887, 45.514998], [-122.708958, 45.5150282], [-122.709046, 45.515052], [-122.709169, 45.5150768], [-122.709292, 45.515094], [-122.7094051, 45.5151063], [-122.7095121, 45.5151089], [-122.7096099, 45.5151052], [-122.7097076, 45.5150928], [-122.7097885, 45.5150717], [-122.7098555, 45.515044], [-122.709922, 45.5149936], [-122.7099594, 45.514956], [-122.70999, 45.5149071], [-122.7100164, 45.5148562], [-122.7100337, 45.5147988], [-122.7100292, 45.5147256], [-122.7100139, 45.5146525], [-122.7099786, 45.5145644], [-122.7099132, 45.5144611], [-122.7098117, 45.5143538], [-122.7095721, 45.5141856], [-122.7093942, 45.5140598], [-122.7093105, 45.5139918], [-122.709239, 45.513919], [-122.7091677, 45.5138372], [-122.7091096, 45.5137467], [-122.7090886, 45.5136928], [-122.7090827, 45.5136426], [-122.7090939, 45.5135322], [-122.70913, 45.5133836], [-122.7091515, 45.5133142], [-122.7091712, 45.5132463], [-122.709171, 45.5131945], [-122.7091543, 45.5131338], [-122.7090284, 45.5129715], [-122.7089798, 45.5128944], [-122.7089513, 45.5128195], [-122.7089412, 45.5127662], [-122.7089434, 45.5127097], [-122.7089448, 45.5126554], [-122.708957, 45.512601], [-122.7089711, 45.512562], [-122.7090076, 45.5125257], [-122.709133, 45.512456], [-122.7092001, 45.5124123], [-122.709235, 45.5123711], [-122.709282, 45.51233], [-122.7093296, 45.5122912], [-122.7093893, 45.5122533], [-122.7094601, 45.5122309], [-122.7095349, 45.5122142], [-122.7096563, 45.5121996], [-122.7097918, 45.5121845], [-122.7098978, 45.5121577], [-122.7100024, 45.5121299], [-122.7101011, 45.5120863], [-122.7101515, 45.5120596], [-122.7101821, 45.5120384], [-122.7102072, 45.5120172], [-122.7102537, 45.5119726], [-122.7102814, 45.5119439], [-122.7103063, 45.5119153], [-122.7103425, 45.5118444], [-122.7103802, 45.5117361], [-122.7104177, 45.5116331], [-122.7104567, 45.5115281], [-122.7104914, 45.5114665], [-122.710554, 45.511406], [-122.7106234, 45.5113553], [-122.710704, 45.511311], [-122.7107459, 45.5112924], [-122.7107899, 45.5112766], [-122.7108404, 45.5112683], [-122.710893, 45.5112621], [-122.7109894, 45.5112593], [-122.7110577, 45.5112617], [-122.7111235, 45.5112616], [-122.71126, 45.511277]]}}, {"type": "Feature", "properties": {"osm_id": "way/5518017", "osm_url": "https://www.openstreetmap.org/way/5518017", "highway": "service", "motor_vehicle": "private", "sidewalk": "no"}, "geometry": {"type": "LineString", "coordinates": [[-122.7067809, 45.5191703], [-122.7068374, 45.5191733], [-122.7068583, 45.5191767], [-122.706874, 45.5191819], [-122.7069323, 45.5192024], [-122.7069808, 45.5192183], [-122.7070584, 45.5192475], [-122.7071386, 45.5192745], [-122.7071966, 45.519288], [-122.707296, 45.5193025], [-122.7073771, 45.519311], [-122.7074687, 45.5193286], [-122.7076002, 45.5193674], [-122.7076617, 45.5194059], [-122.7076815, 45.5194174], [-122.7077229, 45.5194738], [-122.7077101, 45.519516], [-122.7076875, 45.5195375], [-122.7075409, 45.5196611], [-122.7074102, 45.5197791], [-122.7072434, 45.5199791], [-122.707221, 45.5200199], [-122.7072149, 45.5200591], [-122.707215, 45.520108], [-122.7072222, 45.5201467], [-122.7072389, 45.5201876], [-122.7072619, 45.5202174], [-122.7072952, 45.5202431], [-122.7073516, 45.5202599], [-122.7074098, 45.520265], [-122.7074695, 45.5202679], [-122.7075476, 45.5202601], [-122.7076517, 45.5202443], [-122.7078523, 45.5202044], [-122.7081845, 45.5201204], [-122.7082861, 45.5200835], [-122.7083615, 45.5200493], [-122.7084176, 45.5200165], [-122.7084736, 45.5199799], [-122.7085452, 45.519927], [-122.7085759, 45.5198958], [-122.7086053, 45.5198632], [-122.7086425, 45.5198152], [-122.7089099, 45.5194444]]}}, {"type": "Feature", "properties": {"osm_id": "way/35345082", "osm_url": "https://www.openstreetmap.org/way/35345082", "barrier": "fence", "leisure": "sports_centre", "sport": "tennis"}, "geometry": {"type": "Polygon", "coordinates": [[[-122.7066153, 45.5204436], [-122.7063939, 45.5204441], [-122.7063925, 45.5201178], [-122.7063912, 45.5197882], [-122.7066125, 45.5197877], [-122.7066139, 45.5201172], [-122.7066153, 45.5204436]]]}}, {"type": "Feature", "properties": {"osm_id": "way/35345083", "osm_url": "https://www.openstreetmap.org/way/35345083", "barrier": "fence", "leisure": "sports_centre", "sport": "tennis"}, "geometry": {"type": "Polygon", "coordinates": [[[-122.7066103, 45.519734], [-122.7063941, 45.5197334], [-122.7063959, 45.5194335], [-122.7063976, 45.5191343], [-122.7066136, 45.5191349], [-122.7066119, 45.5194334], [-122.7066103, 45.519734]]]}}, {"type": "Feature", "properties": {"osm_id": "way/35345084", "osm_url": "https://www.openstreetmap.org/way/35345084", "barrier": "fence", "leisure": "sports_centre", "sport": "tennis"}, "geometry": {"type": "Polygon", "coordinates": [[[-122.7066114, 45.5190663], [-122.7063981, 45.5190661], [-122.7063985, 45.5187738], [-122.7063996, 45.5184802], [-122.7066129, 45.5184804], [-122.7066115, 45.5187744], [-122.7066114, 45.5190663]]]}}, {"type": "Feature", "properties": {"osm_id": "way/113896988", "osm_url": "https://www.openstreetmap.org/way/113896988", "bicycle": "no", "est_width": "2.3", "highway": "footway", "RLIS:systemname": "Washington Park Trails", "surface": "paved"}, "geometry": {"type": "LineString", "coordinates": [[-122.706668, 45.5204466], [-122.7066365, 45.5204462], [-122.7066286, 45.5197628]]}}, {"type": "Feature", "properties": {"osm_id": "way/113897100", "osm_url": "https://www.openstreetmap.org/way/113897100", "bicycle": "no", "est_width": "2.3", "highway": "footway", "RLIS:systemname": "International Rose Test Garden Trails", "surface": "paved"}, "geometry": {"type": "LineString", "coordinates": [[-122.7066382, 45.5191009], [-122.7063884, 45.5191053]]}}, {"type": "Feature", "properties": {"osm_id": "way/113897243", "osm_url": "https://www.openstreetmap.org/way/113897243", "bicycle": "no", "crossing": "uncontrolled", "crossing:markings": "zebra", "crossing:signals": "no", "est_width": "2.3", "footway": "crossing", "highway": "footway", "RLIS:systemname": "Washington Park Trails", "surface": "paved"}, "geometry": {"type": "LineString", "coordinates": [[-122.7065338, 45.5182245], [-122.706504, 45.5181977], [-122.7064662, 45.5181654]]}}, {"type": "Feature", "properties": {"osm_id": "way/113897297", "osm_url": "https://www.openstreetmap.org/way/113897297", "bicycle": "yes", "highway": "footway", "mtb": "yes", "RLIS:systemname": "Washington Park Trails", "surface": "paved"}, "geometry": {"type": "LineString", "coordinates": [[-122.7066382, 45.5191009], [-122.7067402, 45.519104], [-122.706779, 45.5191037], [-122.7068407, 45.5191046], [-122.706874, 45.5191819]]}}, {"type": "Feature", "properties": {"osm_id": "way/113897420", "osm_url": "https://www.openstreetmap.org/way/113897420", "highway": "footway", "name": "Fairview Trail", "RLIS:systemname": "Washington Park Trails", "surface": "ground"}, "geometry": {"type": "LineString", "coordinates": [[-122.7107509, 45.519332], [-122.7107393, 45.5192695], [-122.7107183, 45.519186], [-122.7106672, 45.5191609], [-122.7106096, 45.5191785], [-122.7105278, 45.5192425], [-122.7102779, 45.519353], [-122.7100705, 45.5194325], [-122.7099355, 45.5194707], [-122.7098005, 45.5195009], [-122.7096489, 45.5194997], [-122.7095921, 45.5195098], [-122.7095211, 45.5195177]]}}, {"type": "Feature", "properties": {"osm_id": "way/113897486", "osm_url": "https://www.openstreetmap.org/way/113897486", "bicycle": "no", "est_width": "2.3", "highway": "footway", "RLIS:systemname": "International Rose Test Garden Trails", "surface": "paved"}, "geometry": {"type": "LineString", "coordinates": [[-122.7066286, 45.5197628], [-122.7063538, 45.519762]]}}, {"type": "Feature", "properties": {"osm_id": "way/113897550", "osm_url": "https://www.openstreetmap.org/way/113897550", "bicycle": "no", "foot": "private", "highway": "footway", "RLIS:systemname": "Washington Park Trails", "surface": "pebblestone"}, "geometry": {"type": "LineString", "coordinates": [[-122.7082756, 45.5190795], [-122.7081409, 45.5190405], [-122.7080368, 45.5190819], [-122.7075537, 45.5191068], [-122.7073995, 45.5190614], [-122.7073781, 45.5190626], [-122.707383, 45.5191055], [-122.7075039, 45.5192013], [-122.7077168, 45.5192436], [-122.707878, 45.5192409], [-122.7079894, 45.519239], [-122.7080162, 45.5192534], [-122.7079561, 45.5192987], [-122.7078854, 45.5193544], [-122.7078109, 45.5193895], [-122.7076815, 45.5194174]]}}, {"type": "Feature", "properties": {"osm_id": "way/113897562", "osm_url": "https://www.openstreetmap.org/way/113897562", "bicycle": "no", "est_width": "2.3", "highway": "footway", "RLIS:systemname": "Washington Park Trails", "surface": "paved"}, "geometry": {"type": "LineString", "coordinates": [[-122.7066286, 45.5197628], [-122.7066352, 45.5192843], [-122.7066382, 45.5191009]]}}, {"type": "Feature", "properties": {"osm_id": "way/113897578", "osm_url": "https://www.openstreetmap.org/way/113897578", "bicycle": "no", "est_width": "0.9", "foot": "designated", "highway": "path", "horse": "no", "name": "Wildwood Trail", "RLIS:systemname": "Wildwood Trail", "surface": "ground"}, "geometry": {"type": "LineString", "coordinates": [[-122.714268, 45.5143654], [-122.7140988, 45.514394], [-122.713904, 45.5143954], [-122.713836, 45.5143865], [-122.7138013, 45.5143789], [-122.7137607, 45.514362], [-122.7137302, 45.5143409], [-122.7137133, 45.5143221], [-122.7137037, 45.5142965], [-122.7136984, 45.5142757], [-122.7136781, 45.5140431], [-122.7136752, 45.5139682], [-122.7137042, 45.5139128], [-122.71374, 45.5138683], [-122.7137586, 45.5138246], [-122.7137214, 45.5138032], [-122.7136567, 45.5137997], [-122.7135329, 45.513797], [-122.7134089, 45.5137858], [-122.7131353, 45.5137841], [-122.7130275, 45.5137758], [-122.71297, 45.5137692], [-122.7129267, 45.5137527], [-122.7129483, 45.5137197], [-122.7130052, 45.5136966], [-122.7131013, 45.5136678], [-122.7132111, 45.5136513], [-122.7134583, 45.5136502], [-122.7136051, 45.5136354], [-122.713698, 45.5136154], [-122.7137685, 45.5135591], [-122.7138113, 45.5134556], [-122.7137914, 45.5133954], [-122.7136478, 45.5132149], [-122.7135733, 45.5131575], [-122.7134593, 45.513035], [-122.7133846, 45.5128713], [-122.7133658, 45.5127969], [-122.7132926, 45.5126578], [-122.7132523, 45.5126272], [-122.7131575, 45.5125526], [-122.7131082, 45.5125392], [-122.7129585, 45.5125529], [-122.7128563, 45.5125334], [-122.7127823, 45.5125209], [-122.7126548, 45.5125206], [-122.7124983, 45.5125106], [-122.7122121, 45.5125298], [-122.7120069, 45.512567], [-122.7116471, 45.5126481], [-122.7114254, 45.5126637], [-122.7113072, 45.5127188], [-122.7111554, 45.5128235], [-122.7111037, 45.5128746], [-122.7110273, 45.5129157], [-122.7108418, 45.5129646], [-122.710642, 45.5129996], [-122.7105442, 45.513033], [-122.7101369, 45.5131996], [-122.7099807, 45.5132971], [-122.7097934, 45.5135321], [-122.7097242, 45.5135799], [-122.7096664, 45.5136216], [-122.7096395, 45.5136425], [-122.7095965, 45.5136539], [-122.7095767, 45.5136391], [-122.7095729, 45.5136186], [-122.7095856, 45.513574], [-122.7096431, 45.513494], [-122.7096522, 45.5133783], [-122.7096747, 45.5132033], [-122.7096866, 45.5130942], [-122.7096899, 45.513021], [-122.7096691, 45.5129834], [-122.7096256, 45.5130071], [-122.7096009, 45.5130571], [-122.709545, 45.5132532], [-122.7094979, 45.5134139], [-122.7094348, 45.5135321], [-122.7094191, 45.5136471], [-122.7094265, 45.5138039], [-122.7094931, 45.5139228], [-122.7096382, 45.5140869], [-122.709692, 45.5141269], [-122.7097441, 45.5141637], [-122.7098059, 45.5142016], [-122.7099244, 45.5142964], [-122.710035, 45.5144306], [-122.7101275, 45.5145643], [-122.7101815, 45.5146695], [-122.7102098, 45.5147742], [-122.7102003, 45.514852], [-122.7101655, 45.5149887], [-122.7101116, 45.5150573], [-122.709845, 45.5152264], [-122.7096607, 45.5153036], [-122.7095058, 45.5153363], [-122.7092914, 45.5153428], [-122.7090744, 45.5153315], [-122.7088288, 45.515277], [-122.7087389, 45.5152307], [-122.7086729, 45.5151932], [-122.7085279, 45.5150783], [-122.7082593, 45.5149432], [-122.7081453, 45.5148718], [-122.7080202, 45.5148159], [-122.707832, 45.5147448], [-122.7076336, 45.5147347], [-122.7075379, 45.5147329], [-122.7074795, 45.5147377], [-122.7074435, 45.5147445], [-122.707402, 45.5147437], [-122.7073897, 45.5147233], [-122.7073961, 45.5146936], [-122.7074158, 45.5146618], [-122.7074066, 45.5146259], [-122.7073788, 45.5146048], [-122.7073416, 45.5146057], [-122.7073045, 45.5146182], [-122.7072696, 45.5146289], [-122.7072301, 45.5146316], [-122.7072122, 45.5146071], [-122.7072037, 45.5145826], [-122.7071987, 45.5145548], [-122.7071739, 45.5145344], [-122.7070876, 45.5145375], [-122.7070108, 45.5145584], [-122.7069961, 45.5145955], [-122.7070014, 45.5146298], [-122.7070446, 45.5146828], [-122.7074265, 45.5150226], [-122.7075075, 45.5150741], [-122.7075982, 45.5151053], [-122.7078658, 45.5151538], [-122.708, 45.5151896], [-122.7080821, 45.5152595], [-122.7081335, 45.5153445], [-122.7081516, 45.5154129], [-122.708125, 45.5154901], [-122.7081226, 45.5155387], [-122.708161, 45.5155872], [-122.7082316, 45.5156243], [-122.7082967, 45.515704], [-122.7083875, 45.5157591], [-122.7084951, 45.5157616], [-122.7085945, 45.5157429], [-122.7086881, 45.5157265], [-122.7087716, 45.5157358], [-122.7088947, 45.5157774], [-122.7089345, 45.5157977], [-122.7090013, 45.5158105], [-122.7090908, 45.5158271], [-122.7092527, 45.5158943], [-122.7093838, 45.5159621], [-122.7095051, 45.5159923], [-122.7096224, 45.5160253], [-122.7097254, 45.5160425], [-122.7098476, 45.5160466], [-122.7100251, 45.5160431], [-122.710082, 45.5160487], [-122.7101213, 45.5160815], [-122.7101046, 45.516135], [-122.7100388, 45.5161945], [-122.7099888, 45.5162639], [-122.7099849, 45.5163167], [-122.7100043, 45.516393], [-122.7100376, 45.516458], [-122.710083, 45.5165283], [-122.7101242, 45.516572], [-122.7101822, 45.516624], [-122.7102349, 45.5166703], [-122.7102592, 45.5166933], [-122.7102881, 45.5167348], [-122.7103023, 45.5167716], [-122.7102782, 45.5168179], [-122.7102482, 45.5168463], [-122.710199, 45.5168554], [-122.7101518, 45.516856], [-122.7100648, 45.5168719], [-122.710027, 45.5168968], [-122.7099986, 45.51692], [-122.709954, 45.5169218], [-122.709924, 45.5169124], [-122.7098076, 45.5168398], [-122.70972, 45.5167975], [-122.7096083, 45.5167665], [-122.709489, 45.5167583], [-122.7093013, 45.5167774], [-122.7091258, 45.5167959], [-122.7090406, 45.51685], [-122.708984, 45.5169162], [-122.7089143, 45.5169469], [-122.7088028, 45.5169964], [-122.7087369, 45.5170775], [-122.7087129, 45.5171567], [-122.7087137, 45.5172647], [-122.708788, 45.5173186], [-122.708923, 45.5173627], [-122.7090263, 45.5174017], [-122.7090976, 45.5174606], [-122.7092087, 45.5174843], [-122.7093711, 45.5175415], [-122.7094599, 45.5175656], [-122.7096724, 45.517632], [-122.70982, 45.5177123], [-122.7099126, 45.5177941], [-122.7099823, 45.5178713], [-122.71005, 45.5179716], [-122.7100775, 45.51808], [-122.7100834, 45.5181807], [-122.7101123, 45.5182459], [-122.710134, 45.5183517], [-122.7102147, 45.5185213], [-122.7102352, 45.5185768], [-122.7102064, 45.5186323], [-122.7101366, 45.5186836], [-122.7101079, 45.5187114], [-122.7100945, 45.5187414], [-122.7101452, 45.5187397], [-122.7101897, 45.5187316], [-122.7102915, 45.5186967], [-122.7103694, 45.518666], [-122.710428, 45.5186215], [-122.7105168, 45.5185116], [-122.7105642, 45.5184618], [-122.7106216, 45.5183762], [-122.7106914, 45.5183186], [-122.7107921, 45.5182867], [-122.7108815, 45.5182852], [-122.7109601, 45.5183064], [-122.7110219, 45.5183446], [-122.7110606, 45.5183819], [-122.7111029, 45.5184529], [-122.7111427, 45.5184841], [-122.7113887, 45.5185272], [-122.7114701, 45.5185292], [-122.711564, 45.5185048], [-122.7116198, 45.5184597], [-122.7116472, 45.5183793], [-122.7116745, 45.5182878], [-122.7117171, 45.5182437], [-122.7117953, 45.5182255], [-122.7118812, 45.518223], [-122.7120074, 45.5182125], [-122.7121167, 45.5181914], [-122.7123259, 45.5181008], [-122.7123752, 45.5180649], [-122.7124195, 45.517999], [-122.7124606, 45.5179074], [-122.7125151, 45.5177708], [-122.7125724, 45.51772], [-122.7126358, 45.5177026], [-122.7127515, 45.517717], [-122.7128569, 45.5177552], [-122.7129163, 45.5177791], [-122.7129701, 45.5177811], [-122.7132024, 45.51766], [-122.7132339, 45.5176162], [-122.7132428, 45.5175679], [-122.713294, 45.5175067], [-122.7133252, 45.5174859], [-122.7133656, 45.5174391], [-122.7133808, 45.5173907], [-122.713393, 45.5173376], [-122.7134124, 45.5172467], [-122.7134269, 45.5171839], [-122.7134655, 45.5171511], [-122.7135314, 45.517068], [-122.7135781, 45.5170434], [-122.7136094, 45.5170655], [-122.713613, 45.5171071], [-122.7136367, 45.517168], [-122.7136716, 45.5171958], [-122.7137204, 45.5172171], [-122.7138024, 45.5172013], [-122.713869, 45.5172006], [-122.7139116, 45.5172438], [-122.7139298, 45.5172708], [-122.7139607, 45.5172877], [-122.7140937, 45.5173099], [-122.7141613, 45.5173355], [-122.7142157, 45.517373], [-122.7142655, 45.5173799], [-122.7143015, 45.5174459], [-122.7143137, 45.5174809], [-122.7143098, 45.5175252], [-122.7142698, 45.5176102], [-122.7142656, 45.517715], [-122.7142937, 45.5178056], [-122.714359, 45.5178629], [-122.7144592, 45.5178958], [-122.7145894, 45.5179111], [-122.7147179, 45.5179407], [-122.714868, 45.5180029], [-122.7149261, 45.5180535], [-122.7149739, 45.5180878], [-122.7150224, 45.518118], [-122.7150596, 45.518156], [-122.7150878, 45.5183097], [-122.7151525, 45.5181492], [-122.7151598, 45.5180926], [-122.7151601, 45.5180131], [-122.7151306, 45.51793], [-122.7150979, 45.5178768], [-122.7150525, 45.5178338], [-122.7150199, 45.5177964], [-122.7149926, 45.5177429], [-122.7149894, 45.5176989], [-122.7150791, 45.5177283], [-122.7151438, 45.5177573], [-122.7151978, 45.5178168], [-122.7152507, 45.5178631], [-122.7152862, 45.5178996], [-122.7153547, 45.5179553], [-122.7154169, 45.518051], [-122.7154362, 45.5181945], [-122.7154095, 45.5183362], [-122.7153914, 45.5183896], [-122.7153751, 45.5184291], [-122.7153434, 45.5184803], [-122.7153189, 45.5185126], [-122.715301, 45.5185324], [-122.7152431, 45.5185963], [-122.7151526, 45.5187243], [-122.7152866, 45.5186554], [-122.7153935, 45.5185629], [-122.7154794, 45.5185164], [-122.7155056, 45.518497], [-122.7155278, 45.5184775], [-122.7155808, 45.5184275], [-122.7156447, 45.5183574], [-122.71566, 45.5183474], [-122.715694, 45.518342]]}}, {"type": "Feature", "properties": {"osm_id": "way/118770655", "osm_url": "https://www.openstreetmap.org/way/118770655", "bicycle": "designated", "highway": "tertiary", "maxspeed": "20 mph", "name": "Southwest Rose Garden Way", "sidewalk": "no", "surface": "asphalt"}, "geometry": {"type": "LineString", "coordinates": [[-122.7062154, 45.5183026], [-122.706504, 45.5181977], [-122.706656, 45.518133]]}}, {"type": "Feature", "properties": {"osm_id": "way/118773492", "osm_url": "https://www.openstreetmap.org/way/118773492", "bicycle": "designated", "highway": "tertiary", "maxspeed": "20 mph", "name": "Southwest Kingston Avenue", "sidewalk": "both", "surface": "asphalt"}, "geometry": {"type": "LineString", "coordinates": [[-122.7067512, 45.5215255], [-122.7067751, 45.5198944]]}}, {"type": "Feature", "properties": {"osm_id": "way/121189344", "osm_url": "https://www.openstreetmap.org/way/121189344", "building": "yes", "name": "Nezu Gate"}, "geometry": {"type": "Polygon", "coordinates": [[[-122.7083894, 45.5188386], [-122.7083555, 45.5188882], [-122.7083346, 45.51892], [-122.708277, 45.518901], [-122.7082945, 45.5188746], [-122.7083319, 45.5188196], [-122.7083894, 45.5188386]]]}}, {"type": "Feature", "properties": {"osm_id": "way/121189345", "osm_url": "https://www.openstreetmap.org/way/121189345", "building": "yes"}, "geometry": {"type": "Polygon", "coordinates": [[[-122.7078133, 45.5188255], [-122.7076091, 45.5188489], [-122.7075461, 45.5185794], [-122.7077502, 45.518556], [-122.7078061, 45.5187948], [-122.7078133, 45.5188255]]]}}, {"type": "Feature", "properties": {"osm_id": "way/122176590", "osm_url": "https://www.openstreetmap.org/way/122176590", "highway": "service", "oneway": "yes", "service": "parking_aisle", "surface": "asphalt"}, "geometry": {"type": "LineString", "coordinates": [[-122.7070232, 45.5194839], [-122.7069942, 45.519492], [-122.7069788, 45.5195061], [-122.7069744, 45.5195271], [-122.7069649, 45.5197798], [-122.7069728, 45.5198114], [-122.7069886, 45.5198342]]}}, {"type": "Feature", "properties": {"osm_id": "way/122176598", "osm_url": "https://www.openstreetmap.org/way/122176598", "highway": "service", "oneway": "no"}, "geometry": {"type": "LineString", "coordinates": [[-122.7067751, 45.5198944], [-122.706876, 45.5198777], [-122.7069102, 45.5198672], [-122.7069422, 45.5198552], [-122.7069886, 45.5198342]]}}, {"type": "Feature", "properties": {"osm_id": "way/122176601", "osm_url": "https://www.openstreetmap.org/way/122176601", "highway": "service", "oneway": "yes", "service": "parking_aisle", "smoothness": "good", "surface": "asphalt"}, "geometry": {"type": "LineString", "coordinates": [[-122.7069886, 45.5198342], [-122.70706, 45.5198051], [-122.7071276, 45.5197756], [-122.707168, 45.519743], [-122.7071865, 45.5197076], [-122.7071914, 45.5196796], [-122.7071962, 45.5195499], [-122.7071919, 45.5195224], [-122.707168, 45.5194984], [-122.7071342, 45.5194849], [-122.7070232, 45.5194839]]}}, {"type": "Feature", "properties": {"osm_id": "way/130713767", "osm_url": "https://www.openstreetmap.org/way/130713767", "addr:city": "Portland", "addr:housenumber": "611", "addr:postcode": "97205", "addr:state": "OR", "addr:street": "Southwest Kingston Avenue", "contact:facebook": "PortlandJapaneseGarden", "contact:instagram": "portlandjapanesegarden", "contact:pinterest": "pdxjapangarden", "contact:twitter": "PDXJapaneseGdn", "contact:website": "https://www.portland.gov/parks/japanese-garden", "contact:youtube": "https://www.youtube.com/user/PdxJapaneseGarden", "fee": "yes", "leisure": "garden", "name": "Portland Japanese Garden", "name:ja": "\u30dd\u30fc\u30c8\u30e9\u30f3\u30c9\u65e5\u672c\u5ead\u5712", "operator": "City of Portland", "operator:type": "public", "operator:wikidata": "Q6106", "website": "https://japanesegarden.org/", "wikidata": "Q2195976", "wikipedia": "en:Portland Japanese Garden"}, "geometry": {"type": "Polygon", "coordinates": [[[-122.7073122, 45.5194623], [-122.7073095, 45.5197157], [-122.7077004, 45.5197011], [-122.7081023, 45.5196681], [-122.7086228, 45.5195828], [-122.7089495, 45.5195005], [-122.70914, 45.519407], [-122.7092412, 45.519314], [-122.7092707, 45.5191899], [-122.7092332, 45.5190133], [-122.7094142, 45.5187365], [-122.7095377, 45.5185316], [-122.7095752, 45.5183212], [-122.709429, 45.5181018], [-122.7090736, 45.5178043], [-122.7088335, 45.5177597], [-122.7086364, 45.5177743], [-122.7084031, 45.5179923], [-122.7081842, 45.5180409], [-122.7077489, 45.5179458], [-122.7075072, 45.5179452], [-122.707175, 45.5179978], [-122.7068942, 45.5180923], [-122.7068445, 45.5182431], [-122.7068369, 45.518424], [-122.7068314, 45.5187015], [-122.706834, 45.5189067], [-122.7068336, 45.5190359], [-122.7068391, 45.519317], [-122.7068382, 45.5194652], [-122.7073122, 45.5194623]]]}}, {"type": "Feature", "properties": {"osm_id": "way/191858262", "osm_url": "https://www.openstreetmap.org/way/191858262", "bicycle": "designated", "cycleway:both": "no", "highway": "tertiary", "lanes": "2", "maxspeed": "20 mph", "name": "Southwest Kingston Avenue", "sidewalk": "right", "surface": "asphalt"}, "geometry": {"type": "LineString", "coordinates": [[-122.7067751, 45.5198944], [-122.7067796, 45.5194736], [-122.7067816, 45.5192924], [-122.7067822, 45.5191927], [-122.7067809, 45.5191703], [-122.706779, 45.5191037], [-122.7067696, 45.5184355], [-122.7067698, 45.5183989], [-122.7067673, 45.5183642], [-122.7067602, 45.518322], [-122.7067472, 45.5182787], [-122.706725, 45.518225], [-122.706656, 45.518133]]}}, {"type": "Feature", "properties": {"osm_id": "way/191858263", "osm_url": "https://www.openstreetmap.org/way/191858263", "highway": "footway"}, "geometry": {"type": "LineString", "coordinates": [[-122.706628, 45.5183959], [-122.7065839, 45.5184039], [-122.7064992, 45.5184097], [-122.7064664, 45.5184114], [-122.7064229, 45.5184124], [-122.7063855, 45.5184108], [-122.706339, 45.5184055], [-122.7062985, 45.5183991], [-122.7062499, 45.5183859], [-122.7062154, 45.5183757], [-122.706197, 45.5183683]]}}, {"type": "Feature", "properties": {"osm_id": "way/348061178", "osm_url": "https://www.openstreetmap.org/way/348061178", "building": "yes"}, "geometry": {"type": "Polygon", "coordinates": [[[-122.7086459, 45.519361], [-122.7084098, 45.5192889], [-122.7084892, 45.5191614], [-122.708577, 45.5191882], [-122.7086265, 45.5191086], [-122.7087952, 45.5191601], [-122.7088312, 45.5191022], [-122.7089818, 45.5191482], [-122.7088811, 45.5193101], [-122.7088546, 45.519302], [-122.70871, 45.5192579], [-122.7086554, 45.5193457], [-122.7086459, 45.519361]]]}}, {"type": "Feature", "properties": {"osm_id": "way/367904750", "osm_url": "https://www.openstreetmap.org/way/367904750", "addr:city": "Portland", "addr:housenumber": "2760", "addr:postcode": "97205", "addr:street": "Southwest Fairview Boulevard", "building": "detached", "building:levels": "2", "ele": "162.0"}, "geometry": {"type": "Polygon", "coordinates": [[[-122.709276, 45.5200797], [-122.7091842, 45.5199884], [-122.7093064, 45.519924], [-122.7094063, 45.5200246], [-122.7093573, 45.5200498], [-122.7093552, 45.5200431], [-122.709276, 45.5200797]]]}}, {"type": "Feature", "properties": {"osm_id": "way/367904752", "osm_url": "https://www.openstreetmap.org/way/367904752", "addr:city": "Portland", "addr:housenumber": "2764", "addr:postcode": "97205", "addr:street": "Southwest Fairview Boulevard", "building": "detached", "building:levels": "2", "ele": "163.8"}, "geometry": {"type": "Polygon", "coordinates": [[[-122.7094645, 45.5199912], [-122.7093783, 45.5199233], [-122.7094844, 45.5198577], [-122.709516, 45.5198835], [-122.7095052, 45.5198915], [-122.709557, 45.5199336], [-122.7095461, 45.5199416], [-122.7095533, 45.5199474], [-122.7095275, 45.5199635], [-122.7095188, 45.5199559], [-122.7094645, 45.5199912]]]}}, {"type": "Feature", "properties": {"osm_id": "way/367904754", "osm_url": "https://www.openstreetmap.org/way/367904754", "addr:city": "Portland", "addr:housenumber": "2766", "addr:postcode": "97205", "addr:street": "Southwest Fairview Boulevard", "building": "detached", "building:levels": "1", "ele": "164.7"}, "geometry": {"type": "Polygon", "coordinates": [[[-122.7095815, 45.5199036], [-122.7095092, 45.5198345], [-122.7094929, 45.5198437], [-122.7094495, 45.5198024], [-122.7094645, 45.5197952], [-122.7094486, 45.5197809], [-122.7095578, 45.5197239], [-122.7096331, 45.5197969], [-122.7096549, 45.5197857], [-122.7096984, 45.519828], [-122.7096806, 45.5198371], [-122.7096893, 45.5198457], [-122.7096566, 45.519863], [-122.7096681, 45.5198736], [-122.7096258, 45.5198949], [-122.7096157, 45.5198853], [-122.7095815, 45.5199036]]]}}, {"type": "Feature", "properties": {"osm_id": "way/367904757", "osm_url": "https://www.openstreetmap.org/way/367904757", "addr:city": "Portland", "addr:housenumber": "2770", "addr:postcode": "97205", "addr:street": "Southwest Fairview Boulevard", "building": "detached", "building:levels": "2", "ele": "166.0"}, "geometry": {"type": "Polygon", "coordinates": [[[-122.7096992, 45.5197508], [-122.7097633, 45.5197153], [-122.7097763, 45.5197278], [-122.709809, 45.5197096], [-122.7098249, 45.5197239], [-122.7098426, 45.5197148], [-122.7098844, 45.5197512], [-122.709864, 45.5197623], [-122.7098698, 45.5197671], [-122.7097757, 45.5198198], [-122.7096992, 45.5197508]]]}}, {"type": "Feature", "properties": {"osm_id": "way/367904759", "osm_url": "https://www.openstreetmap.org/way/367904759", "addr:city": "Portland", "addr:housenumber": "2774", "addr:postcode": "97205", "addr:street": "Southwest Fairview Boulevard", "building": "detached", "building:levels": "2", "ele": "167.2"}, "geometry": {"type": "Polygon", "coordinates": [[[-122.7098892, 45.5196359], [-122.7099601, 45.5195983], [-122.7099963, 45.5196329], [-122.7100195, 45.5196207], [-122.7100686, 45.5196668], [-122.7099431, 45.5197318], [-122.7098809, 45.5196743], [-122.7099123, 45.519658], [-122.7098892, 45.5196359]]]}}, {"type": "Feature", "properties": {"osm_id": "way/368166229", "osm_url": "https://www.openstreetmap.org/way/368166229", "addr:city": "Portland", "addr:housenumber": "595", "addr:postcode": "97205", "addr:street": "Southwest Kingston Avenue", "amenity": "toilets", "building": "yes", "building:levels": "1", "ele": "167.9", "fee": "no", "toilets:disposal": "flush", "wheelchair": "yes"}, "geometry": {"type": "Polygon", "coordinates": [[[-122.7085224, 45.5186462], [-122.7084146, 45.5186642], [-122.7083703, 45.518533], [-122.7084782, 45.5185151], [-122.7085224, 45.5186462]]]}}, {"type": "Feature", "properties": {"osm_id": "way/368166314", "osm_url": "https://www.openstreetmap.org/way/368166314", "building": "yes", "building:levels": "1", "ele": "164.6"}, "geometry": {"type": "Polygon", "coordinates": [[[-122.7092274, 45.5186376], [-122.7091357, 45.5186442], [-122.7091346, 45.5186377], [-122.7091187, 45.5186386], [-122.7091114, 45.5185957], [-122.7092013, 45.5185882], [-122.7092024, 45.5185945], [-122.7092131, 45.5185936], [-122.7092136, 45.5185957], [-122.7092202, 45.5185951], [-122.7092274, 45.5186376]]]}}, {"type": "Feature", "properties": {"osm_id": "way/368166348", "osm_url": "https://www.openstreetmap.org/way/368166348", "building": "yes", "ele": "162.8"}, "geometry": {"type": "Polygon", "coordinates": [[[-122.7091105, 45.5182046], [-122.7091178, 45.5182242], [-122.7090809, 45.518231], [-122.7090735, 45.5182115], [-122.7091105, 45.5182046]]]}}, {"type": "Feature", "properties": {"osm_id": "way/368166352", "osm_url": "https://www.openstreetmap.org/way/368166352", "building": "yes", "ele": "163.5"}, "geometry": {"type": "Polygon", "coordinates": [[[-122.7080347, 45.5181497], [-122.7080309, 45.5181725], [-122.7079995, 45.5181699], [-122.7080033, 45.5181472], [-122.7080347, 45.5181497]]]}}, {"type": "Feature", "properties": {"osm_id": "way/368166362", "osm_url": "https://www.openstreetmap.org/way/368166362", "building": "roof", "ele": "149.1"}, "geometry": {"type": "Polygon", "coordinates": [[[-122.7077879, 45.5193361], [-122.7078164, 45.5193774], [-122.7077753, 45.5193915], [-122.7077467, 45.5193502], [-122.7077879, 45.5193361]]]}}, {"type": "Feature", "properties": {"osm_id": "way/368166363", "osm_url": "https://www.openstreetmap.org/way/368166363", "building": "yes", "ele": "164.9"}, "geometry": {"type": "Polygon", "coordinates": [[[-122.7090461, 45.5187059], [-122.7090247, 45.5187108], [-122.7090126, 45.5186845], [-122.709034, 45.5186796], [-122.7090461, 45.5187059]]]}}, {"type": "Feature", "properties": {"osm_id": "way/368166382", "osm_url": "https://www.openstreetmap.org/way/368166382", "building": "yes", "ele": "157.6"}, "geometry": {"type": "Polygon", "coordinates": [[[-122.7072649, 45.5182251], [-122.7072018, 45.5182345], [-122.7071907, 45.5181976], [-122.7072538, 45.5181883], [-122.7072649, 45.5182251]]]}}, {"type": "Feature", "properties": {"osm_id": "way/368166407", "osm_url": "https://www.openstreetmap.org/way/368166407", "building": "yes", "ele": "163.4"}, "geometry": {"type": "Polygon", "coordinates": [[[-122.709211, 45.5182297], [-122.7092254, 45.518261], [-122.709181, 45.5182711], [-122.7091666, 45.5182398], [-122.709211, 45.5182297]]]}}, {"type": "Feature", "properties": {"osm_id": "way/428045043", "osm_url": "https://www.openstreetmap.org/way/428045043", "bicycle": "yes", "cycleway:right": "no", "highway": "tertiary", "lane_markings": "no", "maxspeed": "20 mph", "name": "Southwest Sherwood Boulevard", "oneway": "yes", "sidewalk": "left", "surface": "asphalt"}, "geometry": {"type": "LineString", "coordinates": [[-122.706656, 45.518133], [-122.706508, 45.5180167], [-122.706424, 45.517963], [-122.7063338, 45.5179195], [-122.706244, 45.517886], [-122.7061719, 45.517865], [-122.7060844, 45.5178505], [-122.706003, 45.5178405], [-122.7059335, 45.5178257], [-122.7058472, 45.5177993], [-122.7057549, 45.5177566], [-122.7056801, 45.517714], [-122.7056036, 45.5176632], [-122.7055407, 45.5176065], [-122.7054965, 45.5175626], [-122.705452, 45.517499], [-122.705429, 45.517437], [-122.705434, 45.517371], [-122.70547, 45.517297], [-122.705531, 45.517229], [-122.705869, 45.516897], [-122.7059473, 45.5167406], [-122.705954, 45.5165752], [-122.7059367, 45.5165148], [-122.7059121, 45.5164575], [-122.705885, 45.5164258], [-122.7058483, 45.5163921], [-122.7057896, 45.5163424], [-122.7057285, 45.5163004], [-122.7056422, 45.5162694], [-122.705539, 45.516246], [-122.705429, 45.516241], [-122.705331, 45.5162528], [-122.705189, 45.51627], [-122.705075, 45.516278], [-122.704835, 45.516272]]}}, {"type": "Feature", "properties": {"osm_id": "way/614333781", "osm_url": "https://www.openstreetmap.org/way/614333781", "barrier": "fence"}, "geometry": {"type": "LineString", "coordinates": [[-122.7089275, 45.5194503], [-122.7087103, 45.5197473], [-122.7085681, 45.5199296], [-122.7083589, 45.5200668], [-122.7082168, 45.520125], [-122.7079164, 45.520204], [-122.7076964, 45.5202509], [-122.7074309, 45.5202829], [-122.7073209, 45.5202754], [-122.7072431, 45.5202209], [-122.7072002, 45.5201438], [-122.7071948, 45.5200273]]}}, {"type": "Feature", "properties": {"osm_id": "way/614356145", "osm_url": "https://www.openstreetmap.org/way/614356145", "foot": "private", "highway": "footway"}, "geometry": {"type": "LineString", "coordinates": [[-122.7079009, 45.5189149], [-122.7078546, 45.5188519], [-122.7078581, 45.5188288], [-122.7078628, 45.5188015]]}}, {"type": "Feature", "properties": {"osm_id": "way/614356146", "osm_url": "https://www.openstreetmap.org/way/614356146", "foot": "private", "highway": "footway"}, "geometry": {"type": "LineString", "coordinates": [[-122.7082223, 45.5188582], [-122.708135, 45.5188838], [-122.7081166, 45.5188861], [-122.7079009, 45.5189149], [-122.7076927, 45.5189207], [-122.7076044, 45.5189127], [-122.7075615, 45.518892], [-122.707538, 45.5188667], [-122.7074816, 45.5187341], [-122.7075433, 45.5187279]]}}, {"type": "Feature", "properties": {"osm_id": "way/614356147", "osm_url": "https://www.openstreetmap.org/way/614356147", "foot": "private", "highway": "footway"}, "geometry": {"type": "LineString", "coordinates": [[-122.7076927, 45.5189207], [-122.7076825, 45.518853], [-122.7075907, 45.5188573], [-122.7075531, 45.5187546], [-122.7075433, 45.5187279], [-122.707513, 45.5186448], [-122.7075171, 45.5186094], [-122.7075272, 45.5185819], [-122.7076222, 45.5185328], [-122.7076242, 45.5185181], [-122.7076265, 45.5184996], [-122.7076467, 45.5184892], [-122.7076771, 45.5184915], [-122.7076981, 45.5185029], [-122.7077156, 45.5185133], [-122.7077575, 45.5185455], [-122.7077622, 45.5185819], [-122.7078129, 45.5187953], [-122.7078628, 45.5188015], [-122.7079594, 45.5188199], [-122.7080697, 45.5187829], [-122.7081166, 45.5188861]]}}, {"type": "Feature", "properties": {"osm_id": "way/614356949", "osm_url": "https://www.openstreetmap.org/way/614356949", "foot": "private", "highway": "footway"}, "geometry": {"type": "LineString", "coordinates": [[-122.7091728, 45.5184504], [-122.7091178, 45.5185331], [-122.7090535, 45.5185961], [-122.7090159, 45.5186468], [-122.708981, 45.5186961], [-122.7089683, 45.5187262], [-122.7089334, 45.5187539], [-122.7088668, 45.51877], [-122.7087384, 45.5187762], [-122.7085216, 45.5187724], [-122.7084359, 45.518769], [-122.7083569, 45.5187581], [-122.7082657, 45.518812], [-122.7082223, 45.5188582]]}}, {"type": "Feature", "properties": {"osm_id": "way/614357127", "osm_url": "https://www.openstreetmap.org/way/614357127", "foot": "private", "highway": "footway", "layer": "-1"}, "geometry": {"type": "LineString", "coordinates": [[-122.7083569, 45.5187581], [-122.7083505, 45.5186859], [-122.7083349, 45.5186137], [-122.7082988, 45.5185265], [-122.7083406, 45.5184505], [-122.7085314, 45.5183276]]}}, {"type": "Feature", "properties": {"osm_id": "way/614640337", "osm_url": "https://www.openstreetmap.org/way/614640337", "foot": "private", "highway": "footway"}, "geometry": {"type": "LineString", "coordinates": [[-122.7076265, 45.5184996], [-122.7076154, 45.5184259], [-122.707669, 45.5184067], [-122.7077551, 45.5183775], [-122.707841, 45.5183662], [-122.7079509, 45.5183726], [-122.7080381, 45.5183864], [-122.7080919, 45.5184063], [-122.7081972, 45.5184636], [-122.7082988, 45.5185265]]}}, {"type": "Feature", "properties": {"osm_id": "way/741345329", "osm_url": "https://www.openstreetmap.org/way/741345329", "highway": "footway", "name": "Japanese Garden Trail", "RLIS:systemname": "Washington Park Trails", "surface": "ground"}, "geometry": {"type": "LineString", "coordinates": [[-122.7069161, 45.520278], [-122.7069648, 45.5202735], [-122.7071096, 45.5202998], [-122.7072371, 45.5203191], [-122.7072961, 45.5203341], [-122.7074303, 45.5203492], [-122.7075912, 45.5203341], [-122.7077736, 45.5203341], [-122.7079345, 45.5203417], [-122.7081491, 45.5203078], [-122.7083261, 45.5201988], [-122.7085407, 45.5200334], [-122.7086963, 45.5198944], [-122.7088733, 45.5196801], [-122.709002, 45.5195072], [-122.70912, 45.5194621], [-122.7092756, 45.5194057], [-122.7093122, 45.519272], [-122.7093239, 45.5192536], [-122.7093487, 45.5192628], [-122.7093829, 45.5193682], [-122.7093913, 45.5194413], [-122.7094154, 45.5195188], [-122.7094682, 45.5195453], [-122.7095211, 45.5195177], [-122.709478, 45.5194507], [-122.7094789, 45.5193446], [-122.7094829, 45.5192877], [-122.7094853, 45.5192286], [-122.7094902, 45.5191583], [-122.7094189, 45.5190702], [-122.7093389, 45.5189941], [-122.7094527, 45.519033], [-122.7095817, 45.5190982], [-122.7096406, 45.519149], [-122.7096725, 45.5193128], [-122.7096758, 45.5193414], [-122.7097375, 45.5193538], [-122.7098982, 45.5193171], [-122.7101256, 45.5192483], [-122.710162, 45.5192068], [-122.7101652, 45.5190998], [-122.7102039, 45.5190296], [-122.7102698, 45.5189552], [-122.7103413, 45.5188766], [-122.7103906, 45.518809], [-122.7104818, 45.5187281], [-122.7105288, 45.5186493], [-122.7105168, 45.5185116]]}}, {"type": "Feature", "properties": {"osm_id": "way/930340113", "osm_url": "https://www.openstreetmap.org/way/930340113", "leisure": "pitch", "sport": "tennis"}, "geometry": {"type": "Polygon", "coordinates": [[[-122.7065739, 45.5190312], [-122.7064338, 45.5190305], [-122.7064357, 45.5188171], [-122.7065758, 45.5188177], [-122.7065739, 45.5190312]]]}}, {"type": "Feature", "properties": {"osm_id": "way/930340114", "osm_url": "https://www.openstreetmap.org/way/930340114", "leisure": "pitch", "sport": "tennis"}, "geometry": {"type": "Polygon", "coordinates": [[[-122.7065755, 45.5187313], [-122.7064355, 45.5187307], [-122.7064373, 45.5185173], [-122.7065775, 45.5185179], [-122.7065755, 45.5187313]]]}}, {"type": "Feature", "properties": {"osm_id": "way/930340115", "osm_url": "https://www.openstreetmap.org/way/930340115", "leisure": "pitch", "sport": "tennis"}, "geometry": {"type": "Polygon", "coordinates": [[[-122.7065709, 45.5193903], [-122.7064309, 45.5193897], [-122.7064327, 45.5191763], [-122.7065728, 45.5191769], [-122.7065709, 45.5193903]]]}}, {"type": "Feature", "properties": {"osm_id": "way/930340116", "osm_url": "https://www.openstreetmap.org/way/930340116", "leisure": "pitch", "sport": "tennis"}, "geometry": {"type": "Polygon", "coordinates": [[[-122.7065699, 45.519691], [-122.7064298, 45.5196904], [-122.7064317, 45.5194769], [-122.7065718, 45.5194776], [-122.7065699, 45.519691]]]}}, {"type": "Feature", "properties": {"osm_id": "way/930340117", "osm_url": "https://www.openstreetmap.org/way/930340117", "leisure": "pitch", "sport": "tennis"}, "geometry": {"type": "Polygon", "coordinates": [[[-122.706569, 45.5200614], [-122.706429, 45.5200608], [-122.7064308, 45.5198474], [-122.706571, 45.519848], [-122.706569, 45.5200614]]]}}, {"type": "Feature", "properties": {"osm_id": "way/945983187", "osm_url": "https://www.openstreetmap.org/way/945983187", "foot": "private", "highway": "footway"}, "geometry": {"type": "LineString", "coordinates": [[-122.7090673, 45.5180697], [-122.7091078, 45.5181229], [-122.7090535, 45.5181633], [-122.7090749, 45.5181849], [-122.7090105, 45.5182192]]}}, {"type": "Feature", "properties": {"osm_id": "way/945983188", "osm_url": "https://www.openstreetmap.org/way/945983188", "building": "yes", "name": "Calvin and Mayho Tanabe Welcome Center", "shop": "ticket"}, "geometry": {"type": "Polygon", "coordinates": [[[-122.7069466, 45.5193614], [-122.706966, 45.5193614], [-122.7071251, 45.5193614], [-122.7071853, 45.5193614], [-122.7071853, 45.5194422], [-122.7069466, 45.5194422], [-122.7069466, 45.5193844], [-122.7069466, 45.5193614]]]}}, {"type": "Feature", "properties": {"osm_id": "way/945983189", "osm_url": "https://www.openstreetmap.org/way/945983189", "foot": "private", "highway": "footway"}, "geometry": {"type": "LineString", "coordinates": [[-122.7086525, 45.5183574], [-122.7085874, 45.5183466], [-122.7085314, 45.5183276], [-122.7084982, 45.5182944], [-122.7084714, 45.5182333], [-122.7084438, 45.5181678], [-122.70843, 45.5181349], [-122.7084378, 45.5180913], [-122.7085305, 45.5180499], [-122.7085948, 45.5180294], [-122.7086699, 45.5180116], [-122.708749, 45.5179993], [-122.7087982, 45.5180047], [-122.7088697, 45.5180604], [-122.7088992, 45.5181196], [-122.7089287, 45.518177], [-122.7089797, 45.5182051], [-122.7090105, 45.5182192], [-122.7090776, 45.518254], [-122.7091366, 45.5183245], [-122.7091621, 45.5183959], [-122.7091728, 45.5184504]]}}, {"type": "Feature", "properties": {"osm_id": "way/945983190", "osm_url": "https://www.openstreetmap.org/way/945983190", "building": "yes"}, "geometry": {"type": "Polygon", "coordinates": [[[-122.7088386, 45.51897], [-122.7089012, 45.5188697], [-122.7091356, 45.5189416], [-122.7090931, 45.5190094], [-122.7091633, 45.519031], [-122.7091094, 45.5191172], [-122.7089197, 45.519059], [-122.7089533, 45.5190052], [-122.7088386, 45.51897]]]}}, {"type": "Feature", "properties": {"osm_id": "way/945983191", "osm_url": "https://www.openstreetmap.org/way/945983191", "air_conditioning": "yes", "amenity": "cafe", "building": "yes", "check_date": "2026-05-15", "check_date:opening_hours": "2026-05-15", "cuisine": "tea", "description": "Serves Japanese tea and snacks", "diet:vegetarian": "yes", "name": "Umami Cafe", "opening_hours": "Mo-Su 09:00-18:00", "outdoor_seating": "yes", "phone": "+1 503-542-9355", "reservation": "recommended", "website": "https://japanesegarden.org/umami-cafe/"}, "geometry": {"type": "Polygon", "coordinates": [[[-122.7084969, 45.5191185], [-122.7083502, 45.5190736], [-122.7084039, 45.5189876], [-122.7085505, 45.5190325], [-122.7084969, 45.5191185]]]}}, {"type": "Feature", "properties": {"osm_id": "way/967062147", "osm_url": "https://www.openstreetmap.org/way/967062147", "landuse": "residential"}, "geometry": {"type": "Polygon", "coordinates": [[[-122.7149957, 45.5224719], [-122.7149713, 45.5224832], [-122.7148877, 45.5224904], [-122.7147864, 45.5224966], [-122.7137672, 45.5225378], [-122.7137681, 45.5222621], [-122.7136113, 45.5222616], [-122.7136106, 45.5221798], [-122.7134172, 45.5221797], [-122.7134169, 45.5223175], [-122.7132219, 45.5223174], [-122.713221, 45.5221537], [-122.7131927, 45.5221712], [-122.7131596, 45.5221844], [-122.7131265, 45.5221951], [-122.7130855, 45.5222015], [-122.7130463, 45.5222033], [-122.7130072, 45.5222004], [-122.7130082, 45.5224269], [-122.7127927, 45.5224265], [-122.7127917, 45.5223998], [-122.7125971, 45.5223991], [-122.7125961, 45.5223724], [-122.7124019, 45.5223717], [-122.7124025, 45.5223446], [-122.7121839, 45.5223446], [-122.7121839, 45.5223247], [-122.7116141, 45.5223892], [-122.7112655, 45.5224859], [-122.7111054, 45.5222026], [-122.7107426, 45.5223017], [-122.7109019, 45.5225857], [-122.7103559, 45.5227357], [-122.7101967, 45.5224481], [-122.7099296, 45.5225203], [-122.7098809, 45.5225309], [-122.7098353, 45.5225358], [-122.7097884, 45.5225371], [-122.7097411, 45.522533], [-122.7096964, 45.522525], [-122.7096544, 45.5225132], [-122.7096129, 45.5224976], [-122.7093223, 45.5227306], [-122.7093727, 45.522837], [-122.7091488, 45.5228931], [-122.7089099, 45.522947], [-122.7086569, 45.5230071], [-122.7085608, 45.5229929], [-122.7085598, 45.5234492], [-122.7081148, 45.5235115], [-122.7074881, 45.5235397], [-122.7074559, 45.5235406], [-122.7074246, 45.5235387], [-122.7072863, 45.5235269], [-122.7069025, 45.523421], [-122.7068903, 45.5234162], [-122.7068786, 45.5234091], [-122.7068675, 45.5234003], [-122.7068604, 45.5233924], [-122.7068545, 45.5233829], [-122.7068503, 45.5233713], [-122.7068497, 45.5233598], [-122.7068809, 45.5204609], [-122.7080855, 45.520358], [-122.7099006, 45.5194999], [-122.7099695, 45.5194767], [-122.710084, 45.5194132], [-122.710278, 45.5195966], [-122.7103737, 45.5195222], [-122.7105319, 45.5193506], [-122.7105877, 45.519305], [-122.7106977, 45.5192373], [-122.710837, 45.5191801], [-122.7111159, 45.5191125], [-122.7113125, 45.5190516], [-122.7114927, 45.5189677], [-122.7116189, 45.5188873], [-122.7117167, 45.5188069], [-122.7117426, 45.518783], [-122.7118383, 45.5186978], [-122.7118898, 45.5186653], [-122.7119344, 45.5186463], [-122.7119991, 45.5186289], [-122.7120847, 45.5186211], [-122.7121871, 45.5186327], [-122.7122975, 45.5183984], [-122.7121753, 45.5182097], [-122.7132091, 45.518168], [-122.7138743, 45.5181509], [-122.7149612, 45.5181229], [-122.7149713, 45.5192174], [-122.7149726, 45.5194618], [-122.7151242, 45.5194602], [-122.7151245, 45.5197589], [-122.7149743, 45.5197592], [-122.7149957, 45.5224719]]]}}, {"type": "Feature", "properties": {"osm_id": "way/980381904", "osm_url": "https://www.openstreetmap.org/way/980381904", "barrier": "fence"}, "geometry": {"type": "LineString", "coordinates": [[-122.7066115, 45.5187744], [-122.7063985, 45.5187738]]}}, {"type": "Feature", "properties": {"osm_id": "way/980381905", "osm_url": "https://www.openstreetmap.org/way/980381905", "barrier": "fence"}, "geometry": {"type": "LineString", "coordinates": [[-122.7066119, 45.5194334], [-122.7063959, 45.5194335]]}}, {"type": "Feature", "properties": {"osm_id": "way/1051879181", "osm_url": "https://www.openstreetmap.org/way/1051879181", "bicycle": "no", "est_width": "2.3", "highway": "footway", "RLIS:systemname": "Washington Park Trails", "surface": "paved"}, "geometry": {"type": "LineString", "coordinates": [[-122.7066382, 45.5191009], [-122.7066387, 45.5187798], [-122.7066374, 45.5184689], [-122.7066327, 45.5184194], [-122.706628, 45.5183959], [-122.7066152, 45.5183574], [-122.7065581, 45.5182603], [-122.7065338, 45.5182245]]}}, {"type": "Feature", "properties": {"osm_id": "way/1055280002", "osm_url": "https://www.openstreetmap.org/way/1055280002", "highway": "footway"}, "geometry": {"type": "LineString", "coordinates": [[-122.7087982, 45.5180047], [-122.7088184, 45.5179922]]}}, {"type": "Feature", "properties": {"osm_id": "way/1055280003", "osm_url": "https://www.openstreetmap.org/way/1055280003", "building": "roof", "name": "Wisteria Arbor"}, "geometry": {"type": "Polygon", "coordinates": [[[-122.7083476, 45.518502], [-122.708377, 45.5184778], [-122.7083056, 45.518435], [-122.7082761, 45.5184592], [-122.7083476, 45.518502]]]}}, {"type": "Feature", "properties": {"osm_id": "way/1055280004", "osm_url": "https://www.openstreetmap.org/way/1055280004", "area": "yes", "highway": "pedestrian", "name": "Oregon Terrace"}, "geometry": {"type": "Polygon", "coordinates": [[[-122.708775, 45.5193822], [-122.7087999, 45.5193898], [-122.7088546, 45.519302], [-122.70871, 45.5192579], [-122.7086554, 45.5193457], [-122.7086656, 45.5193488], [-122.7086748, 45.5193341], [-122.7087627, 45.5193609], [-122.7087795, 45.519334], [-122.708801, 45.5193405], [-122.708775, 45.5193822]]]}}, {"type": "Feature", "properties": {"osm_id": "way/1055280006", "osm_url": "https://www.openstreetmap.org/way/1055280006", "access": "private", "bicycle": "no", "handrail": "yes", "highway": "steps", "incline": "down", "ramp": "no", "RLIS:systemname": "Washington Park Trails"}, "geometry": {"type": "LineString", "coordinates": [[-122.7084839, 45.5191392], [-122.7083754, 45.5191085], [-122.7082756, 45.5190795]]}}, {"type": "Feature", "properties": {"osm_id": "way/1055280007", "osm_url": "https://www.openstreetmap.org/way/1055280007", "bicycle": "no", "foot": "private", "highway": "footway", "RLIS:systemname": "Washington Park Trails", "surface": "pebblestone"}, "geometry": {"type": "LineString", "coordinates": [[-122.7086783, 45.5189742], [-122.7085318, 45.5191298], [-122.708509, 45.5191406], [-122.7084839, 45.5191392]]}}, {"type": "Feature", "properties": {"osm_id": "way/1055280008", "osm_url": "https://www.openstreetmap.org/way/1055280008", "bridge": "yes", "foot": "private", "highway": "footway", "name": "Zig Zag Bridge"}, "geometry": {"type": "LineString", "coordinates": [[-122.7088184, 45.5179922], [-122.7088607, 45.5179665], [-122.70887, 45.517974], [-122.7088942, 45.5179592], [-122.7089459, 45.5180007], [-122.708957, 45.5179938], [-122.7090088, 45.5180353], [-122.7089851, 45.5180498], [-122.7090193, 45.5180772], [-122.709052, 45.5180572], [-122.7090673, 45.5180697]]}}, {"type": "Feature", "properties": {"osm_id": "way/1055280009", "osm_url": "https://www.openstreetmap.org/way/1055280009", "description": "Koi pond", "fixme": "position_estimated", "natural": "water"}, "geometry": {"type": "Polygon", "coordinates": [[[-122.7088764, 45.5180322], [-122.7088335, 45.5180031], [-122.7088184, 45.5179922], [-122.7087973, 45.5179777], [-122.7087075, 45.5179514], [-122.7086779, 45.5179242], [-122.7088402, 45.5178255], [-122.7088603, 45.5179035], [-122.7089207, 45.5179129], [-122.709036, 45.5180069], [-122.7090883, 45.5180557], [-122.7090673, 45.5180697], [-122.7090347, 45.5180905], [-122.7090441, 45.5181422], [-122.7090199, 45.518176], [-122.708973, 45.5181732], [-122.7089676, 45.518099], [-122.7089502, 45.518036], [-122.7088764, 45.5180322]]]}}, {"type": "Feature", "properties": {"osm_id": "way/1055280010", "osm_url": "https://www.openstreetmap.org/way/1055280010", "crossing": "uncontrolled", "crossing:markings": "zebra", "crossing:signals": "no", "footway": "crossing", "highway": "footway"}, "geometry": {"type": "LineString", "coordinates": [[-122.7066352, 45.5192843], [-122.7067816, 45.5192924], [-122.7068768, 45.5192994]]}}, {"type": "Feature", "properties": {"osm_id": "way/1055280011", "osm_url": "https://www.openstreetmap.org/way/1055280011", "bridge": "yes", "highway": "footway"}, "geometry": {"type": "LineString", "coordinates": [[-122.7068768, 45.5192994], [-122.7069654, 45.5192994], [-122.706966, 45.5193614]]}}, {"type": "Feature", "properties": {"osm_id": "way/1055280013", "osm_url": "https://www.openstreetmap.org/way/1055280013", "leisure": "garden", "name": "Sand and Stone Garden", "surface": "sand"}, "geometry": {"type": "Polygon", "coordinates": [[[-122.7073658, 45.5184237], [-122.7072439, 45.518302], [-122.7072072, 45.5183201], [-122.7071225, 45.5183618], [-122.7072444, 45.5184834], [-122.7073658, 45.5184237]]]}}, {"type": "Feature", "properties": {"osm_id": "way/1115393361", "osm_url": "https://www.openstreetmap.org/way/1115393361", "highway": "footway"}, "geometry": {"type": "LineString", "coordinates": [[-122.7066613, 45.5179055], [-122.7065364, 45.517996]]}}, {"type": "Feature", "properties": {"osm_id": "way/1115393362", "osm_url": "https://www.openstreetmap.org/way/1115393362", "highway": "footway"}, "geometry": {"type": "LineString", "coordinates": [[-122.7064662, 45.5181654], [-122.7064479, 45.5181405], [-122.7064418, 45.5181142], [-122.7064235, 45.5180657], [-122.7063778, 45.5180436], [-122.7063269, 45.5180372], [-122.7062832, 45.5180408], [-122.7062355, 45.518065], [-122.7061907, 45.518075], [-122.7059307, 45.5180919]]}}, {"type": "Feature", "properties": {"osm_id": "way/1115393363", "osm_url": "https://www.openstreetmap.org/way/1115393363", "footway": "sidewalk", "highway": "footway"}, "geometry": {"type": "LineString", "coordinates": [[-122.7064662, 45.5181654], [-122.7064875, 45.5181455], [-122.7065007, 45.5181234], [-122.7065018, 45.5181006], [-122.7064936, 45.5180778], [-122.7064656, 45.5180459]]}}, {"type": "Feature", "properties": {"osm_id": "way/1218755390", "osm_url": "https://www.openstreetmap.org/way/1218755390", "highway": "footway"}, "geometry": {"type": "LineString", "coordinates": [[-122.7068619, 45.519847], [-122.7068716, 45.5194737], [-122.7068722, 45.5194489], [-122.7068768, 45.5192994], [-122.706874, 45.5191819]]}}, {"type": "Feature", "properties": {"osm_id": "way/1218755391", "osm_url": "https://www.openstreetmap.org/way/1218755391", "highway": "footway"}, "geometry": {"type": "LineString", "coordinates": [[-122.7069161, 45.520278], [-122.7069156, 45.5199274], [-122.7068996, 45.5199059]]}}, {"type": "Feature", "properties": {"osm_id": "way/1218755392", "osm_url": "https://www.openstreetmap.org/way/1218755392", "crossing": "uncontrolled", "crossing:markings": "yes", "footway": "crossing", "highway": "footway"}, "geometry": {"type": "LineString", "coordinates": [[-122.7068996, 45.5199059], [-122.706876, 45.5198777], [-122.7068619, 45.519847]]}}, {"type": "Feature", "properties": {"osm_id": "way/1218755394", "osm_url": "https://www.openstreetmap.org/way/1218755394", "highway": "footway"}, "geometry": {"type": "LineString", "coordinates": [[-122.7064656, 45.5180459], [-122.7064235, 45.5180657]]}}, {"type": "Feature", "properties": {"osm_id": "way/1218755395", "osm_url": "https://www.openstreetmap.org/way/1218755395", "crossing": "uncontrolled", "crossing:markings": "zebra", "crossing:signals": "no", "footway": "crossing", "highway": "footway"}, "geometry": {"type": "LineString", "coordinates": [[-122.7065364, 45.517996], [-122.706508, 45.5180167], [-122.7064656, 45.5180459]]}}, {"type": "Feature", "properties": {"osm_id": "way/1218755398", "osm_url": "https://www.openstreetmap.org/way/1218755398", "highway": "footway"}, "geometry": {"type": "LineString", "coordinates": [[-122.7068722, 45.5194489], [-122.7072061, 45.519445], [-122.7072937, 45.5194673], [-122.7073187, 45.5195378], [-122.7073059, 45.5197626]]}}, {"type": "Feature", "properties": {"osm_id": "way/1218755411", "osm_url": "https://www.openstreetmap.org/way/1218755411", "highway": "pedestrian", "motor_vehicle": "private", "sidewalk": "no"}, "geometry": {"type": "LineString", "coordinates": [[-122.7082945, 45.5188746], [-122.7082223, 45.5188582]]}}, {"type": "Feature", "properties": {"osm_id": "way/1218755412", "osm_url": "https://www.openstreetmap.org/way/1218755412", "covered": "yes", "highway": "pedestrian", "motor_vehicle": "private", "sidewalk": "no"}, "geometry": {"type": "LineString", "coordinates": [[-122.7083555, 45.5188882], [-122.7082945, 45.5188746]]}}, {"type": "Feature", "properties": {"osm_id": "way/1428443427", "osm_url": "https://www.openstreetmap.org/way/1428443427", "description": "ADA shuttle boarding", "highway": "service", "motor_vehicle": "private", "oneway": "yes", "service": "driveway"}, "geometry": {"type": "LineString", "coordinates": [[-122.7070232, 45.5194839], [-122.7069591, 45.5194737], [-122.7068716, 45.5194737], [-122.7067796, 45.5194736]]}}, {"type": "Feature", "properties": {"osm_id": "way/1428443428", "osm_url": "https://www.openstreetmap.org/way/1428443428", "bicycle": "no", "foot": "private", "highway": "footway", "oneway": "yes", "RLIS:systemname": "Washington Park Trails", "surface": "pebblestone"}, "geometry": {"type": "LineString", "coordinates": [[-122.7072061, 45.519445], [-122.7072141, 45.5193943], [-122.7072309, 45.5193675], [-122.7072752, 45.5193586], [-122.7073295, 45.5193671], [-122.7073777, 45.5193774], [-122.7073965, 45.5193957], [-122.7073824, 45.519454], [-122.7074106, 45.5195113], [-122.7073965, 45.5195526], [-122.7073918, 45.5195724], [-122.7073979, 45.5195813], [-122.707418, 45.5195865], [-122.7074341, 45.5195818], [-122.7074461, 45.5195418], [-122.7074569, 45.5195104], [-122.7074739, 45.5194777], [-122.7075228, 45.5194561], [-122.7075946, 45.519433], [-122.7076815, 45.5194174]]}}, {"type": "Feature", "properties": {"osm_id": "way/1428443429", "osm_url": "https://www.openstreetmap.org/way/1428443429", "foot": "customers", "highway": "pedestrian", "motor_vehicle": "private", "sidewalk": "no"}, "geometry": {"type": "LineString", "coordinates": [[-122.7090645, 45.5192129], [-122.709097, 45.5191603], [-122.7090359, 45.5191381], [-122.7090068, 45.5191167], [-122.7089576, 45.5190989], [-122.7089116, 45.5190821], [-122.7088409, 45.5190466], [-122.7087805, 45.519016], [-122.7086783, 45.5189742], [-122.7085489, 45.5189345], [-122.7084437, 45.518908], [-122.7083555, 45.5188882]]}}, {"type": "Feature", "properties": {"osm_id": "way/1428443430", "osm_url": "https://www.openstreetmap.org/way/1428443430", "highway": "service", "oneway": "yes", "service": "driveway"}, "geometry": {"type": "LineString", "coordinates": [[-122.7089099, 45.5194444], [-122.7089805, 45.5194212], [-122.7090557, 45.5193904], [-122.7091183, 45.5192784], [-122.7091211, 45.5192613], [-122.7091194, 45.5192457], [-122.7090981, 45.5192234], [-122.7090645, 45.5192129], [-122.7090237, 45.5192112], [-122.7089925, 45.5192258], [-122.7089721, 45.5192506], [-122.708907, 45.5193629], [-122.7089099, 45.5194444]]}}, {"type": "Feature", "properties": {"osm_id": "way/1455930283", "osm_url": "https://www.openstreetmap.org/way/1455930283", "foot": "private", "highway": "footway", "oneway": "yes", "stroller": "no", "wheelchair": "no"}, "geometry": {"type": "LineString", "coordinates": [[-122.7084438, 45.5181678], [-122.7083825, 45.5181778], [-122.7083408, 45.5181593], [-122.7082829, 45.5181422], [-122.7082138, 45.5181415], [-122.7081294, 45.5181322], [-122.7080136, 45.5181344], [-122.7079516, 45.5181358], [-122.7078581, 45.5181216], [-122.7077676, 45.5181123], [-122.7077666, 45.5181415], [-122.7077605, 45.518165], [-122.7076863, 45.518175], [-122.7076599, 45.5181735], [-122.7076253, 45.518165], [-122.7076121, 45.5181486], [-122.707609, 45.5181315], [-122.7075542, 45.5181401], [-122.7075288, 45.5181401], [-122.7075074, 45.5181208], [-122.707481, 45.5181137], [-122.7074434, 45.5181123], [-122.7074149, 45.5181073], [-122.7073875, 45.5181073], [-122.7073692, 45.5180795], [-122.7073468, 45.518086], [-122.7073184, 45.5181216], [-122.7073102, 45.5181372], [-122.7072889, 45.5181678], [-122.7072838, 45.5182035], [-122.7072757, 45.5182376], [-122.7073265, 45.5182362], [-122.7073854, 45.5182248], [-122.7074566, 45.5182177], [-122.7075033, 45.5182348], [-122.7074942, 45.5182725], [-122.7074373, 45.5182989], [-122.7074058, 45.5183217], [-122.7074291, 45.5183295], [-122.7074617, 45.5183081], [-122.7075074, 45.5182854], [-122.7075684, 45.5182754], [-122.7076141, 45.5182811], [-122.7076944, 45.5182754], [-122.7077828, 45.5182661], [-122.7078398, 45.5182761], [-122.707853, 45.5183167], [-122.707841, 45.5183662]]}}, {"type": "Feature", "properties": {"osm_id": "way/1455930284", "osm_url": "https://www.openstreetmap.org/way/1455930284", "foot": "private", "highway": "footway"}, "geometry": {"type": "LineString", "coordinates": [[-122.7072757, 45.5182376], [-122.707233, 45.5182441], [-122.7072127, 45.5182647], [-122.7072072, 45.5183201]]}}, {"type": "Feature", "properties": {"osm_id": "way/1455930285", "osm_url": "https://www.openstreetmap.org/way/1455930285", "bicycle": "no", "foot": "private", "highway": "footway", "RLIS:systemname": "Washington Park Trails", "surface": "pebblestone"}, "geometry": {"type": "LineString", "coordinates": [[-122.7071342, 45.5194849], [-122.7072061, 45.519445]]}}]}